OBJECT_NAME,OBJECT_ID,EPOCH,MEAN_MOTION,ECCENTRICITY,INCLINATION,RA_OF_ASC_NODE,ARG_OF_PERICENTER,MEAN_ANOMALY,EPHEMERIS_TYPE,CLASSIFICATION_TYPE,NORAD_CAT_ID,ELEMENT_SET_NO,REV_AT_EPOCH,BSTAR,MEAN_MOTION_DOT,MEAN_MOTION_DDOT
YAOGAN-30 03C,2017-075C,2026-06-19T17:00:18.509184,15.02671513,.00016782,34.9947,254.8365,66.8511,293.2374,0,U,43030,999,46780,.13520068E-3,.1811E-4,0
COSMOS 2524,2017-076A,2026-06-19T23:08:01.493952,13.97429398,.00049765,67.1438,185.7307,224.7355,135.3329,0,U,43032,999,43599,.11206259E-3,.82E-6,0
LKW-1,2017-077A,2026-06-19T22:08:31.416576,15.23846965,.00023296,97.0984,205.0113,107.2906,252.8588,0,U,43034,999,47511,.14608316E-3,.3456E-4,0
ALCOMSAT 1,2017-078A,2026-06-19T20:44:02.699232,1.00272462,.00022931,0.0246,268.2884,173.6260,112.3637,0,U,43039,999,3132,0,-.192E-5,0
GSAT0215 (GALILEO 19),2017-079A,2026-06-18T18:36:27.330912,1.70474593,.0003228,55.0730,221.4630,264.0800,95.9660,0,U,43055,999,5301,0,.28E-6,0
GSAT0216 (GALILEO 20),2017-079B,2026-06-17T21:26:22.395264,1.70474666,.00043172,55.0732,221.4873,276.2784,83.7610,0,U,43056,999,5301,0,.34E-6,0
GSAT0217 (GALILEO 21),2017-079C,2026-06-16T08:30:18.751680,1.70474228,.00049855,55.0717,221.5274,283.8791,76.1632,0,U,43057,999,5297,0,.47E-6,0
GSAT0218 (GALILEO 22),2017-079D,2026-06-19T12:10:33.425184,1.70474769,.0004305,55.0708,221.4378,273.7481,86.2815,0,U,43058,999,5305,0,.26E-6,0
GCOM-C (SHIKISAI),2017-082A,2026-06-19T17:48:12.796992,14.27268471,.00011153,98.6277,244.3512,93.3860,266.7448,0,U,43065,999,44230,.55776264E-4,.93E-6,0
IRIDIUM 135,2017-083A,2026-06-19T15:55:03.244800,14.34217289,.00020726,86.3962,320.9800,91.8848,268.2585,0,U,43070,999,44450,-.8040256E-5,-.3E-7,0
IRIDIUM 138,2017-083B,2026-06-19T11:30:11.157984,14.34217693,.00023002,86.3980,320.7525,86.9005,273.2454,0,U,43071,999,44446,.12086632E-4,.54E-6,0
IRIDIUM 116,2017-083C,2026-06-19T15:45:55.156032,14.34217419,.00019161,86.3961,320.9687,100.2595,259.8817,0,U,43072,999,44452,-.9778714E-5,-.8E-7,0
IRIDIUM 130,2017-083D,2026-06-19T11:39:18.697248,14.34219744,.0001947,86.3974,321.3155,93.5195,266.6223,0,U,43073,999,44444,.56353709E-4,.178E-5,0
IRIDIUM 151,2017-083E,2026-06-19T09:22:19.240608,14.34217286,.00020542,86.3962,321.1378,93.3197,266.8234,0,U,43074,999,44445,-.911786E-5,-.6E-7,0
IRIDIUM 134,2017-083F,2026-06-19T20:19:55.159680,14.34218130,.00020017,86.3964,320.9550,92.6892,267.4533,0,U,43075,999,44448,.54043461E-4,.171E-5,0
IRIDIUM 137,2017-083G,2026-06-19T20:38:11.191200,14.34217457,.00022388,86.3967,321.0426,104.0437,256.1008,0,U,43076,999,44455,-.8635003E-5,-.4E-7,0
IRIDIUM 141,2017-083H,2026-06-19T18:48:35.142912,14.34217502,.00020998,86.3961,320.9049,90.8092,269.3344,0,U,43077,999,44454,-.10383684E-4,-.9E-7,0
IRIDIUM 153,2017-083J,2026-06-19T14:18:47.432448,14.34217793,.00022252,86.3962,289.4633,89.9055,270.2396,0,U,43078,999,44562,.977506E-5,.47E-6,0
IRIDIUM 131,2017-083K,2026-06-19T18:30:19.102752,14.34217552,.00022183,86.3972,321.0960,92.0946,268.0504,0,U,43079,999,44447,.25455923E-4,.91E-6,0
LKW-2,2017-084A,2026-06-19T21:54:48.071232,15.26366989,.00014394,97.1187,210.5813,170.4633,189.6634,0,U,43080,999,47210,.19019638E-3,.4876E-4,0
YAOGAN-30 04A,2017-085A,2026-06-19T22:38:19.745376,15.02700562,.00048952,34.9946,133.2550,185.3572,174.7084,0,U,43081,999,46313,.134431E-3,.1802E-4,0
YAOGAN-30 04B,2017-085B,2026-06-19T23:11:01.242240,15.02699809,.00044977,34.9936,133.2099,357.9089,2.1600,0,U,43082,999,46311,.14357466E-3,.1927E-4,0
YAOGAN-30 04C,2017-085C,2026-06-19T23:44:20.452704,15.02735828,.00049049,34.9940,133.4894,172.0540,188.0246,0,U,43083,999,46317,.13418492E-3,.18E-4,0
SUPERVIEW-1 03,2018-002A,2026-06-19T21:30:22.447296,15.39334012,.00473382,97.3130,255.7296,169.8883,190.3327,0,U,43099,999,46878,.37737001E-3,.15243E-3,0
BEIDOU-3 M7,2018-003A,2026-06-17T21:17:59.275968,1.86227917,.0004854,54.3274,302.2910,94.3023,265.7447,0,U,43107,999,5736,0,-.76E-6,0
BEIDOU-3 M8,2018-003B,2026-06-19T10:38:04.998624,1.86230746,.00025361,54.3186,302.2181,260.6635,99.3026,0,U,43108,999,5740,0,-.85E-6,0
CARTOSAT-2F,2018-004A,2026-06-19T23:23:42.039168,15.19230106,.00010102,97.4782,230.5822,195.2519,164.8686,0,U,43111,999,46775,.13566424E-3,.2789E-4,0
LEO 1 (LEO VANTAGE 1),2018-004C,2026-06-19T20:10:43.597632,14.67815829,.03511685,99.2428,89.4762,71.3731,292.5260,0,U,43113,999,43787,.22025661E-3,.3165E-4,0
LKW-3,2018-006A,2026-06-19T22:07:09.886944,15.35294953,.00019441,97.6618,331.6025,309.0075,51.0994,0,U,43146,999,46913,.28059194E-3,.9534E-4,0
ASNARO-2,2018-007A,2026-06-19T22:43:08.596128,15.22406146,.0001822,97.3974,177.8308,90.8748,269.2698,0,U,43152,999,46783,.32553508E-3,.7454E-4,0
JILIN-1 07,2018-008E,2026-06-19T21:31:03.280800,15.34760796,.00096908,97.1769,190.7529,57.3695,302.8483,0,U,43159,999,46541,.22247698E-3,.743E-4,0
JILIN-1 08,2018-008F,2026-06-19T21:33:58.219200,15.33738911,.00079228,97.1802,190.0686,72.8346,287.3764,0,U,43160,999,46536,.14867431E-3,.4778E-4,0
SBIRS GEO-3 (USA 282),2018-009A,2026-06-19T18:57:46.285056,1.00271367,.00019394,2.1864,12.2612,68.0566,312.7279,0,U,43162,999,3087,0,.122E-5,0
WEINA 1A,2018-011A,2026-06-19T07:46:48.040032,15.00997920,.00018266,34.9939,148.8932,52.2609,307.8264,0,U,43169,999,45844,.12560488E-3,.1606E-4,0
YAOGAN-30 05A,2018-011B,2026-06-19T23:01:58.908576,15.02685519,.00034568,34.9948,134.0454,344.4624,15.5978,0,U,43170,999,45856,.151643E-3,.2036E-4,0
YAOGAN-30 05B,2018-011C,2026-06-19T22:55:12.125280,15.02721434,.00016706,34.9938,133.8377,326.0892,33.9709,0,U,43171,999,45863,.1394479E-3,.1871E-4,0
YAOGAN-30 05C,2018-011D,2026-06-19T22:46:30.548352,15.02722723,.0001176,34.9954,134.1215,103.1101,256.9738,0,U,43172,999,45850,.13651819E-3,.1831E-4,0
AL YAH 3,2018-012A,2026-06-19T21:20:10.593600,1.00272279,.00038527,1.5599,83.0762,3.5319,121.4167,0,U,43174,999,3087,0,-.161E-5,0
SES-14,2018-012B,2026-06-19T21:00:38.640672,1.00270386,.00009481,0.0187,29.8969,51.9485,93.9005,0,U,43175,999,705,0,-.284E-5,0
KANOPUS-V 3,2018-014A,2026-06-19T23:15:39.826080,15.23002498,.00015754,97.3580,76.4363,84.7220,275.4196,0,U,43180,999,46514,.82967322E-4,.1881E-4,0
KANOPUS-V 4,2018-014B,2026-06-19T22:28:56.586720,15.22982110,.00016183,97.3589,76.5621,82.9130,277.2291,0,U,43181,999,46515,.82774179E-4,.1876E-4,0
S-NET D,2018-014G,2026-06-19T18:30:15.322752,15.16692471,.00086885,97.5356,75.5454,22.2001,337.9606,0,U,43186,999,45915,.19898246E-3,.3833E-4,0
S-NET B,2018-014H,2026-06-19T18:46:49.202688,15.16663327,.00091728,97.5363,75.5433,17.0385,343.1155,0,U,43187,999,45915,.19517607E-3,.3755E-4,0
S-NET A,2018-014J,2026-06-19T16:53:36.967776,15.16699987,.00090624,97.5374,75.6746,17.9375,342.2176,0,U,43188,999,45914,.20092602E-3,.3872E-4,0
S-NET C,2018-014K,2026-06-19T18:52:25.226112,15.16655510,.00101839,97.5391,75.8316,9.2884,350.8536,0,U,43189,999,45770,.19660655E-3,.3783E-4,0
ZHANGHENG 1-01 (CSES-1),2018-015C,2026-06-19T23:14:12.522336,15.20840397,.00171016,97.6878,336.6805,255.9501,103.9833,0,U,43194,999,46506,.25193381E-3,.5508E-4,0
BEIDOU-3 M4,2018-018A,2026-06-18T06:36:21.724416,1.86230873,.0007707,56.6521,63.1126,19.0373,341.0335,0,U,43207,999,5676,0,-.55E-6,0
BEIDOU-3 M3,2018-018B,2026-06-18T08:12:05.696640,1.86230730,.0008713,56.6516,63.1145,341.3004,18.7097,0,U,43208,999,5676,0,-.56E-6,0
PAZ,2018-020A,2026-06-19T22:32:39.331104,15.19145298,.00017158,97.4453,178.2860,87.5801,272.5630,0,U,43215,999,46142,.69999275E-4,.1403E-4,0
GOES 17,2018-022A,2026-06-19T21:00:23.774688,1.00269498,.00005569,0.9450,85.6629,26.8399,21.1589,0,U,43226,999,3045,0,-.188E-5,0
HISPASAT 30W-6,2018-023A,2026-06-19T16:09:18.037152,1.00270672,.00057701,0.0449,43.3900,27.6436,49.1746,0,U,43228,999,3043,0,-.222E-5,0
PODSAT,2018-023B,2026-06-19T22:36:55.105344,8.58290777,.347508,26.8174,110.2643,136.7219,256.5723,0,U,43229,999,19301,.62910396E-3,.74811E-3,-.389598E-6
O3B FM15,2018-024A,2026-06-18T11:48:32.210208,5.00115790,.000262,0.0516,1.9456,83.8709,274.2112,0,U,43231,999,15109,0,-.23E-6,0
O3B FM16,2018-024B,2026-06-19T17:50:56.929344,5.00115963,.00026448,0.0512,6.4315,79.3521,274.2442,0,U,43232,999,15107,0,-.24E-6,0
O3B FM14,2018-024C,2026-06-19T18:49:42.503808,5.00115740,.00028753,0.0500,7.2967,81.5779,271.1559,0,U,43233,999,15107,0,-.24E-6,0
O3B FM13,2018-024D,2026-06-15T06:04:14.869632,5.00080194,.0023994,0.0569,264.3115,53.5604,41.9436,0,U,43234,999,15095,0,-.17E-6,0
LKW-4,2018-025A,2026-06-19T10:46:43.599936,15.62427153,.00019694,97.6350,341.4996,279.1806,80.9229,0,U,43236,999,46038,.44208914E-3,.39199E-3,0
BEIDOU-3 M9,2018-029A,2026-06-16T09:52:51.223872,1.86227970,.00010054,54.1945,299.9756,155.7517,204.2422,0,U,43245,999,5588,0,-.69E-6,0
BEIDOU-3 M10,2018-029B,2026-06-19T00:44:26.693664,1.86229038,.00037818,54.1899,299.9108,40.0504,319.9737,0,U,43246,999,5591,0,-.8E-6,0
IRIDIUM 144,2018-030A,2026-06-19T14:27:55.395072,14.34218070,.00021304,86.3961,289.3896,97.6790,262.4647,0,U,43249,999,43048,.84463239E-4,.256E-5,0
IRIDIUM 149,2018-030B,2026-06-19T17:57:59.450400,14.34217874,.00022695,86.3959,289.2957,93.6583,266.4873,0,U,43250,999,43052,.18089793E-4,.7E-6,0
IRIDIUM 157,2018-030C,2026-06-19T18:25:23.473056,14.34217675,.00022024,86.3961,289.3410,94.3575,265.7872,0,U,43251,999,43050,.11787866E-4,.53E-6,0
IRIDIUM 140,2018-030D,2026-06-19T13:51:23.459040,14.34217656,.00021388,86.3960,289.4332,94.1946,265.9494,0,U,43252,999,43053,.1013779E-4,.48E-6,0
IRIDIUM 145,2018-030E,2026-06-19T13:33:07.432704,14.34217648,.00020428,86.3961,289.4107,101.7964,258.3461,0,U,43253,999,43046,.11113413E-4,.51E-6,0
IRIDIUM 146,2018-030F,2026-06-19T18:07:07.296384,14.34216929,.00021157,86.3960,289.3433,97.8281,262.3155,0,U,43254,999,43050,.43778379E-4,.142E-5,0
IRIDIUM 148,2018-030G,2026-06-19T08:59:07.467072,14.34217551,.00021584,86.3958,289.5459,96.2696,263.8746,0,U,43255,999,43048,-.216738E-5,.14E-6,0
IRIDIUM 142,2018-030H,2026-06-19T18:16:15.465504,14.34217431,.00020358,86.3955,289.2729,99.5768,260.5658,0,U,43256,999,43050,.148497E-5,.24E-6,0
